{"type": "FeatureCollection", "features": [ {"type": "Feature", "properties": {"norad_id": 31198, "name": "FENGYUN 1C DEB", "group": "fengyun-1c-debris", "lat": 68.98002120323018, "lon": -68.98721439673228, "alt_km": 1019.9033433519244, "timestamp": "2025-12-09T14:52:26.442804+00:00", "meta": {"OBJECT_NAME": "FENGYUN 1C DEB", "OBJECT_ID": "1999-025BKC", "EPOCH": "2025-12-08T13:54:57.159936", "MEAN_MOTION": 13.75520111, "ECCENTRICITY": 0.0204045, "INCLINATION": 98.6127, "RA_OF_ASC_NODE": 86.8436, "ARG_OF_PERICENTER": 2.7281, "MEAN_ANOMALY": 357.4934, "EPHEMERIS_TYPE": 0, "CLASSIFICATION_TYPE": "U", "NORAD_CAT_ID": 31198, "ELEMENT_SET_NO": 999, "REV_AT_EPOCH": 62696, "BSTAR": 0.00016589, "MEAN_MOTION_DOT": 1.47e-06, "MEAN_MOTION_DDOT": 0}, "tle": {"line1": "1 31198U 99025BKC 25342.57982824  .00000147  00000+0  16589-3 0  9991", "line2": "2 31198  98.6127  86.8436 0204045   2.7281 357.4934 13.75520111626967"}}, "geometry": {"type": "Point", "coordinates": [-68.98721439673228, 68.98002120323018]}}, {"type": "Feature", "properties": {"norad_id": 31199, "name": "FENGYUN 1C DEB", "group": "fengyun-1c-debris", "lat": -45.24368886876899, "lon": 137.59511165504654, "alt_km": 832.312866731233, "timestamp": "2025-12-09T14:52:26.442815+00:00", "meta": {"OBJECT_NAME": "FENGYUN 1C DEB", "OBJECT_ID": "1999-025BKD", "EPOCH": "2025-12-05T16:58:40.008864", "MEAN_MOTION": 14.09979297, "ECCENTRICITY": 0.00635718, "INCLINATION": 98.7162, "RA_OF_ASC_NODE": 322.7056, "ARG_OF_PERICENTER": 279.9042, "MEAN_ANOMALY": 258.7122, "EPHEMERIS_TYPE": 0, "CLASSIFICATION_TYPE": "U", "NORAD_CAT_ID": 31199, "ELEMENT_SET_NO": 999, "REV_AT_EPOCH": 96060, "BSTAR": 0.00037158052, "MEAN_MOTION_DOT": 6.24e-06, "MEAN_MOTION_DDOT": 0}, "tle": {"line1": "1 31199U 99025BKD 25339.70740751  .00000624  00000+0  37158-3 0  9999", "line2": "2 31199  98.7162 322.7056 0063571 279.9042 258.7122 14.09979297960603"}}, "geometry": {"type": "Point", "coordinates": [137.59511165504654, -45.24368886876899]}}, {"type": "Feature", "properties": {"norad_id": 31201, "name": "FENGYUN 1C DEB", "group": "fengyun-1c-debris", "lat": 23.164578306936495, "lon": 28.249606979791764, "alt_km": 867.3093319557092, "timestamp": "2025-12-09T14:52:26.442825+00:00", "meta": {"OBJECT_NAME": "FENGYUN 1C DEB", "OBJECT_ID": "1999-025BKF", "EPOCH": "2025-12-08T02:05:42.315648", "MEAN_MOTION": 14.35126707, "ECCENTRICITY": 0.01429047, "INCLINATION": 99.0015, "RA_OF_ASC_NODE": 202.7629, "ARG_OF_PERICENTER": 4.8416, "MEAN_ANOMALY": 158.0063, "EPHEMERIS_TYPE": 0, "CLASSIFICATION_TYPE": "U", "NORAD_CAT_ID": 31201, "ELEMENT_SET_NO": 999, "REV_AT_EPOCH": 97184, "BSTAR": 0.0011651664, "MEAN_MOTION_DOT": 3.684e-05, "MEAN_MOTION_DDOT": 0}, "tle": {"line1": "1 31201U 99025BKF 25342.08729532  .00003684  00000+0  11652-2 0  9991", "line2": "2 31201  99.0015 202.7629 0142904   4.8416 158.0063 14.35126707971842"}}, "geometry": {"type": "Point", "coordinates": [28.249606979791764, 23.164578306936495]}}, {"type": "Feature", "properties": {"norad_id": 31202, "name": "FENGYUN 1C DEB", "group": "fengyun-1c-debris", "lat": 61.51849728613625, "lon": -138.3113444542649, "alt_km": 594.2895016707953, "timestamp": "2025-12-09T14:52:26.442835+00:00", "meta": {"OBJECT_NAME": "FENGYUN 1C DEB", "OBJECT_ID": "1999-025BKG", "EPOCH": "2025-12-07T02:35:41.950752", "MEAN_MOTION": 14.83937225, "ECCENTRICITY": 0.00678878, "INCLINATION": 96.5735, "RA_OF_ASC_NODE": 27.3465, "ARG_OF_PERICENTER": 196.2452, "MEAN_ANOMALY": 192.7864, "EPHEMERIS_TYPE": 0, "CLASSIFICATION_TYPE": "U", "NORAD_CAT_ID": 31202, "ELEMENT_SET_NO": 999, "REV_AT_EPOCH": 99071, "BSTAR": 0.0017202691, "MEAN_MOTION_DOT": 0.00014876, "MEAN_MOTION_DDOT": 0}, "tle": {"line1": "1 31202U 99025BKG 25341.10812443  .00014876  00000+0  17203-2 0  9991", "line2": "2 31202  96.5735  27.3465 0067887 196.2452 192.7864 14.83937225990714"}}, "geometry": {"type": "Point", "coordinates": [-138.3113444542649, 61.51849728613625]}}, {"type": "Feature", "properties": {"norad_id": 31205, "name": "FENGYUN 1C DEB", "group": "fengyun-1c-debris", "lat": 9.558846329333837, "lon": 75.05422778211957, "alt_km": 924.8870438321483, "timestamp": "2025-12-09T14:52:26.442846+00:00", "meta": {"OBJECT_NAME": "FENGYUN 1C DEB", "OBJECT_ID": "1999-025BKK", "EPOCH": "2025-12-08T16:54:13.993632", "MEAN_MOTION": 14.23952534, "ECCENTRICITY": 0.01617006, "INCLINATION": 99.2293, "RA_OF_ASC_NODE": 75.6624, "ARG_OF_PERICENTER": 208.9841, "MEAN_ANOMALY": 150.2285, "EPHEMERIS_TYPE": 0, "CLASSIFICATION_TYPE": "U", "NORAD_CAT_ID": 31205, "ELEMENT_SET_NO": 999, "REV_AT_EPOCH": 97153, "BSTAR": 0.00033027217, "MEAN_MOTION_DOT": 8.17e-06, "MEAN_MOTION_DDOT": 0}, "tle": {"line1": "1 31205U 99025BKK 25342.70432863  .00000817  00000+0  33027-3 0  9998", "line2": "2 31205  99.2293  75.6624 0161700 208.9841 150.2285 14.23952534971530"}}, "geometry": {"type": "Point", "coordinates": [75.05422778211957, 9.558846329333837]}}, {"type": "Feature", "properties": {"norad_id": 31206, "name": "FENGYUN 1C DEB", "group": "fengyun-1c-debris", "lat": -24.976657007227182, "lon": 67.28119073914428, "alt_km": 816.48157124729, "timestamp": "2025-12-09T14:52:26.442856+00:00", "meta": {"OBJECT_NAME": "FENGYUN 1C DEB", "OBJECT_ID": "1999-025BKL", "EPOCH": "2025-12-08T11:15:04.351968", "MEAN_MOTION": 14.40468088, "ECCENTRICITY": 0.00781192, "INCLINATION": 98.8433, "RA_OF_ASC_NODE": 250.2509, "ARG_OF_PERICENTER": 14.3827, "MEAN_ANOMALY": 345.9559, "EPHEMERIS_TYPE": 0, "CLASSIFICATION_TYPE": "U", "NORAD_CAT_ID": 31206, "ELEMENT_SET_NO": 999, "REV_AT_EPOCH": 97784, "BSTAR": 0.0012232977, "MEAN_MOTION_DOT": 3.986e-05, "MEAN_MOTION_DDOT": 0}, "tle": {"line1": "1 31206U 99025BKL 25342.46880037  .00003986  00000+0  12233-2 0  9997", "line2": "2 31206  98.8433 250.2509 0078119  14.3827 345.9559 14.40468088977841"}}, "geometry": {"type": "Point", "coordinates": [67.28119073914428, -24.976657007227182]}}, {"type": "Feature", "properties": {"norad_id": 31208, "name": "FENGYUN 1C DEB", "group": "fengyun-1c-debris", "lat": -26.083146835025047, "lon": -57.614387082802686, "alt_km": 689.4040468143075, "timestamp": "2025-12-09T14:52:26.442867+00:00", "meta": {"OBJECT_NAME": "FENGYUN 1C DEB", "OBJECT_ID": "1999-025BKN", "EPOCH": "2025-12-07T16:00:39.049632", "MEAN_MOTION": 14.61608831, "ECCENTRICITY": 0.00158712, "INCLINATION": 99.2415, "RA_OF_ASC_NODE": 124.7772, "ARG_OF_PERICENTER": 281.9215, "MEAN_ANOMALY": 95.8313, "EPHEMERIS_TYPE": 0, "CLASSIFICATION_TYPE": "U", "NORAD_CAT_ID": 31208, "ELEMENT_SET_NO": 999, "REV_AT_EPOCH": 70405, "BSTAR": 0.0049127356, "MEAN_MOTION_DOT": 0.00024493, "MEAN_MOTION_DDOT": 0}, "tle": {"line1": "1 31208U 99025BKN 25341.66711863  .00024493  00000+0  49127-2 0  9998", "line2": "2 31208  99.2415 124.7772 0015871 281.9215  95.8313 14.61608831704059"}}, "geometry": {"type": "Point", "coordinates": [-57.614387082802686, -26.083146835025047]}}, {"type": "Feature", "properties": {"norad_id": 31209, "name": "FENGYUN 1C DEB", "group": "fengyun-1c-debris", "lat": -71.1788169479225, "lon": -128.7497794152082, "alt_km": 757.6999571697106, "timestamp": "2025-12-09T14:52:26.442877+00:00", "meta": {"OBJECT_NAME": "FENGYUN 1C DEB", "OBJECT_ID": "1999-025BKP", "EPOCH": "2025-12-08T12:44:49.042752", "MEAN_MOTION": 14.43363715, "ECCENTRICITY": 0.00214026, "INCLINATION": 98.8839, "RA_OF_ASC_NODE": 77.4311, "ARG_OF_PERICENTER": 358.4505, "MEAN_ANOMALY": 1.6614, "EPHEMERIS_TYPE": 0, "CLASSIFICATION_TYPE": "U", "NORAD_CAT_ID": 31209, "ELEMENT_SET_NO": 999, "REV_AT_EPOCH": 64747, "BSTAR": 0.0033109963, "MEAN_MOTION_DOT": 0.0001117, "MEAN_MOTION_DDOT": 0}, "tle": {"line1": "1 31209U 99025BKP 25342.53112318  .00011170  00000+0  33110-2 0  9999", "line2": "2 31209  98.8839  77.4311 0021402 358.4505   1.6614 14.43363715647477"}}, "geometry": {"type": "Point", "coordinates": [-128.7497794152082, -71.1788169479225]}}, {"type": "Feature", "properties": {"norad_id": 31210, "name": "FENGYUN 1C DEB", "group": "fengyun-1c-debris", "lat": 68.66089486941245, "lon": -172.13628130773364, "alt_km": 838.6651647023309, "timestamp": "2025-12-09T14:52:26.442887+00:00", "meta": {"OBJECT_NAME": "FENGYUN 1C DEB", "OBJECT_ID": "1999-025BKQ", "EPOCH": "2025-12-08T23:11:23.015904", "MEAN_MOTION": 14.11988267, "ECCENTRICITY": 0.00170187, "INCLINATION": 98.7185, "RA_OF_ASC_NODE": 344.1006, "ARG_OF_PERICENTER": 165.6256, "MEAN_ANOMALY": 223.9997, "EPHEMERIS_TYPE": 0, "CLASSIFICATION_TYPE": "U", "NORAD_CAT_ID": 31210, "ELEMENT_SET_NO": 999, "REV_AT_EPOCH": 95914, "BSTAR": 0.00047243112, "MEAN_MOTION_DOT": 8.23e-06, "MEAN_MOTION_DDOT": 0}, "tle": {"line1": "1 31210U 99025BKQ 25342.96623861  .00000823  00000+0  47243-3 0  9994", "line2": "2 31210  98.7185 344.1006 0017018 165.6256 223.9997 14.11988267959149"}}, "geometry": {"type": "Point", "coordinates": [-172.13628130773364, 68.66089486941245]}}, {"type": "Feature", "properties": {"norad_id": 31211, "name": "FENGYUN 1C DEB", "group": "fengyun-1c-debris", "lat": 10.685027716567447, "lon": -158.75912297416946, "alt_km": 814.4573746132446, "timestamp": "2025-12-09T14:52:26.442898+00:00", "meta": {"OBJECT_NAME": "FENGYUN 1C DEB", "OBJECT_ID": "1999-025BKR", "EPOCH": "2025-12-06T20:08:03.397344", "MEAN_MOTION": 14.2001942, "ECCENTRICITY": 0.00510218, "INCLINATION": 98.6728, "RA_OF_ASC_NODE": 16.8654, "ARG_OF_PERICENTER": 106.1714, "MEAN_ANOMALY": 254.5086, "EPHEMERIS_TYPE": 0, "CLASSIFICATION_TYPE": "U", "NORAD_CAT_ID": 31211, "ELEMENT_SET_NO": 999, "REV_AT_EPOCH": 63209, "BSTAR": 0.001766209, "MEAN_MOTION_DOT": 3.766e-05, "MEAN_MOTION_DDOT": 0}, "tle": {"line1": "1 31211U 99025BKR 25340.83892821  .00003766  00000+0  17662-2 0  9993", "line2": "2 31211  98.6728  16.8654 0051021 106.1714 254.5086 14.20019420632092"}}, "geometry": {"type": "Point", "coordinates": [-158.75912297416946, 10.685027716567447]}}]}